STARLINK-6278           
1 56412U 23061AQ  24028.52428655  .00002172  00000+0  17582-3 0  9990
2 56412  43.0033  54.5671 0001082 259.5916 100.4804 15.02539909 40902
STARLINK-6258           
1 56413U 23061AR  24028.46669533  .00007461  00000+0  56679-3 0  9992
2 56413  43.0031  54.9959 0001256 275.7166  84.3533 15.02535965 40899
STARLINK-5136           
1 56414U 23061AS  24029.05116580 -.00053999  00000+0 -40661-2 0  9990
2 56414  43.0053  51.6415 0001191 278.6451  81.4257 15.02041950 41272
STARLINK-6268           
1 56415U 23061AT  24029.05944196  .00000725  00000+0  68697-4 0  9991
2 56415  43.0049  51.7031 0000876 269.4827  90.5915 15.02539220 41271
STARLINK-6260           
1 56416U 23061AU  24028.43820944  .00002178  00000+0  17630-3 0  9991
2 56416  43.0047  42.6353 0001194 252.2212 107.8500 15.02528966 41039
STARLINK-6261           
1 56417U 23061AV  24028.52163062  .00127370  00000+0  91022-2 0  9991
2 56417  43.0037  54.5481 0001649 271.6090  88.4564 15.03239692 41194
STARLINK-5356           
1 56418U 23061AW  24029.08855660  .00000576  00000+0  57672-4 0  9999
2 56418  43.0044  38.9148 0001149 257.2741 102.7973 15.02537191 41421
STARLINK-5350           
1 56419U 23061AX  24028.51762827  .00008015  00000+0  60760-3 0  9996
2 56419  43.0038  54.5178 0001153 260.0939  99.9773 15.02542333 41191
STARLINK-6272           
1 56420U 23061AY  24029.08522922  .00000252  00000+0  33748-4 0  9993
2 56420  43.0051  38.8915 0001057 263.5597  96.5125 15.02533971 41421
STARLINK-6270           
1 56421U 23061AZ  24029.10520703  .00000514  00000+0  53106-4 0  9993
2 56421  43.0047  39.0379 0001083 260.3689  99.7031 15.02534203 41420
STARLINK-6236           
1 56422U 23061BA  24028.34842530  .00000479  00000+0  50547-4 0  9990
2 56422  43.0045  42.8179 0001035 271.1677  88.9047 15.02537106 41313
STARLINK-6239           
1 56423U 23061BB  24028.48359652  .00005115  00000+0  39335-3 0  9997
2 56423  43.0041  42.1163 0001152 270.3471  89.7240 15.02542767 41042
STARLINK-6242           
1 56424U 23061BC  24029.13949503  .00002935  00000+0  23225-3 0  9999
2 56424  43.0039  38.4328 0001110 260.8221  99.2496 15.02541517 41436
STARLINK-6224           
1 56425U 23061BD  24029.14282871  .00009679  00000+0  73034-3 0  9994
2 56425  43.0040  38.4587 0001117 271.2205  88.8509 15.02547059 41437
STARLINK-5352           
1 56426U 23061BE  24029.08984269 -.00000042  00000+0  12087-4 0  9996
2 56426  43.0045  38.9151 0001039 275.2309  84.8415 15.01721267 41422
STARLINK-5724           
1 56427U 23061BF  24028.49265510  .00003985  00000+0  31660-3 0  9997
2 56427  43.0041  42.1770 0001281 267.7550  92.3145 15.01718163 41049
STARLINK-6238           
1 56428U 23061BG  24029.13173925  .00016621  00000+0  12421-2 0  9992
2 56428  43.0042  38.3765 0001246 264.7297  95.3403 15.02548955 41432
STARLINK-6264           
1 56429U 23061BH  24029.12839795  .00000635  00000+0  62080-4 0  9992
2 56429  43.0049  38.3509 0000950 264.4660  95.6074 15.02534052 41438
STARLINK-5990           
1 56448U 23064A   24028.94141828 -.00000417  00000+0 -27181-4 0  9991
2 56448  70.0003 287.8619 0002405 252.9995 107.0900 14.98328891 39790
STARLINK-5993           
1 56449U 23064B   24028.89536382 -.00000588  00000+0 -41527-4 0  9998
2 56449  69.9989 288.0999 0002926 266.5755  93.5069 14.98329908 39782
STARLINK-5970           
1 56450U 23064C   24028.93724359 -.00000651  00000+0 -46759-4 0  9991
2 56450  70.0004 287.8477 0002339 251.0147 109.0759 14.98331150 39797
STARLINK-5985           
1 56451U 23064D   24029.15819666  .00003890  00000+0  33334-3 0  9993
2 56451  70.0002 287.4136 0002404 255.3151 104.7742 14.98364649 40187
STARLINK-5986           
1 56452U 23064E   24029.15405115  .00000217  00000+0  25996-4 0  9990
2 56452  69.9997 287.3982 0002640 263.4618  96.6240 14.98333736 40181
STARLINK-5935           
1 56453U 23064F   24028.94960152  .00000131  00000+0  18795-4 0  9998
2 56453  69.9998 287.8890 0002632 258.5251 101.5613 14.98329830 39790
STARLINK-5959           
1 56454U 23064G   24028.92873040 -.00000526  00000+0 -36290-4 0  9996
2 56454  70.0001 287.8140 0002541 255.4404 104.6473 14.98330878 39794
STARLINK-5987           
1 56455U 23064H   24029.12485663 -.00002775  00000+0 -22495-3 0  9999
2 56455  69.9997 287.2940 0002588 252.3119 107.7758 14.98310337 40181
STARLINK-5995           
1 56456U 23064J   24029.13735405 -.00002562  00000+0 -20691-3 0  9993
2 56456  70.0005 287.3438 0002619 239.0219 121.0683 14.98345039 40189
STARLINK-5994           
1 56457U 23064K   24028.92891269 -.00000283  00000+0 -15887-4 0  9991
2 56457  69.9981 287.8116 0003321 270.2930  89.7849 14.98318296 39790
STARLINK-6050           
1 56458U 23064L   24028.94125318  .00001085  00000+0  98758-4 0  9996
2 56458  70.0000 287.8578 0002635 261.5564  98.5297 14.98325810 39796
STARLINK-6048           
1 56459U 23064M   24029.10830136  .00000657  00000+0  62842-4 0  9996
2 56459  69.9994 287.2331 0002777 268.8471  91.2370 14.98328758 40182
STARLINK-6047           
1 56460U 23064N   24028.92040169 -.00001322  00000+0 -10306-3 0  9995
2 56460  70.0008 287.7856 0002512 239.6192 120.4719 14.98310304 39798
STARLINK-6037           
1 56461U 23064P   24028.90368390  .00001681  00000+0  14858-3 0  9995
2 56461  69.9997 287.7260 0002890 264.6487  95.4343 14.98343578 39799
STARLINK-6045           
1 56462U 23064Q   24028.92825383  .00001187  00000+0  10727-3 0  9990
2 56462  69.9993 247.6314 0002701 263.4830  96.6021 14.98332319 40789
STARLINK-6051           
1 56463U 23064R   24028.94542783  .00002440  00000+0  21221-3 0  9997
2 56463  70.0000 287.8664 0002682 253.8228 106.2636 14.98332655 39790
STARLINK-6043           
1 56464U 23064S   24028.91620908  .00000201  00000+0  24649-4 0  9992
2 56464  69.9995 287.7689 0002628 258.3049 101.7815 14.98327698 39798
STARLINK-6054           
1 56465U 23064T   24028.93242809 -.00000775  00000+0 -57156-4 0  9992
2 56465  69.9995 247.6467 0002750 263.9277  96.1569 14.98329192 40784
STARLINK-6053           
1 56466U 23064U   24029.10812055 -.00006453  00000+0 -53306-3 0  9990
2 56466  69.9997 287.2337 0002907 265.3588  94.7239 14.98364818 40184
STARLINK-6055           
1 56467U 23064V   24029.06202674 -.00000669  00000+0 -48251-4 0  9993
2 56467  69.9989 267.6039 0002722 266.1154  93.9694 14.98329310 40667
STARLINK-5998           
1 56468U 23064W   24028.89950973 -.00000178  00000+0 -71391-5 0  9993
2 56468  69.9998 287.7104 0002620 255.5735 104.5133 14.98331670 39799
STARLINK-5518           
1 56469U 23064X   24028.94102948 -.00000311  00000+0 -18263-4 0  9998
2 56469  69.9992 267.9876 0002723 262.1838  97.9012 14.98330057 40287
STARLINK-5523           
1 56470U 23064Y   24028.93268217  .00000005  00000+0  82051-5 0  9996
2 56470  69.9991 267.9565 0002969 264.6019  95.4801 14.98328562 40280
STARLINK-5521           
1 56471U 23064Z   24028.92433344 -.00000236  00000+0 -12020-4 0  9997
2 56471  69.9993 267.9266 0002700 263.0204  97.0648 14.98327597 40287
STARLINK-5038           
1 56472U 23064AA  24029.05801462  .00000049  00000+0  11869-4 0  9993
2 56472  69.9992 267.5907 0002714 264.5460  95.5389 14.98332621 40661
STARLINK-5486           
1 56473U 23064AB  24028.91180903 -.00000215  00000+0 -10231-4 0  9997
2 56473  69.9995 267.8844 0002516 260.9732  99.1143 14.98330471 40287
STARLINK-5524           
1 56474U 23064AC  24028.93687026 -.00000380  00000+0 -24042-4 0  9996
2 56474  69.9985 267.9720 0003044 265.7936  94.2875 14.98325379 40286
STARLINK-5541           
1 56475U 23064AD  24028.89946445 -.00001529  00000+0 -12038-3 0  9992
2 56475  69.9987 267.8424 0002874 265.5418  94.5413 14.98327151 40283
STARLINK-5545           
1 56476U 23064AE  24028.92015748 -.00000601  00000+0 -42612-4 0  9992
2 56476  69.9996 267.9124 0002639 261.5883  98.4977 14.98330332 40286
STARLINK-5534           
1 56477U 23064AF  24028.89527790 -.00000496  00000+0 -33789-4 0  9991
2 56477  69.9988 267.8272 0002697 262.1277  97.9575 14.98333788 40285
STARLINK-6041           
1 56478U 23064AG  24028.90763587 -.00000616  00000+0 -43842-4 0  9995
2 56478  69.9996 267.8697 0002452 255.3585 104.7302 14.98329334 40288
STARLINK-6044           
1 56479U 23064AH  24029.08286048 -.00001241  00000+0 -96233-4 0  9995
2 56479  69.9984 267.2722 0003298 270.5054  89.5727 14.98331475 40671
STARLINK-6214           
1 56480U 23064AJ  24028.91598499 -.00000158  00000+0 -54237-5 0  9999
2 56480  69.9993 267.8972 0002735 259.7760 100.3091 14.98328814 40280
STARLINK-6222           
1 56481U 23064AK  24029.09121499 -.00000720  00000+0 -52530-4 0  9990
2 56481  69.9988 267.3059 0002699 262.1212  97.9640 14.98335670 40677
STARLINK-6220           
1 56482U 23064AL  24028.90346223 -.00000712  00000+0 -51856-4 0  9995
2 56482  69.9993 267.8550 0002537 268.2688  91.8181 14.98329753 40285
STARLINK-5868           
1 56483U 23064AM  24029.03282622  .00017649  00000+0  14866-2 0  9996
2 56483  69.9991 267.5007 0002269 272.4812  87.6087 14.98243424 40666
STARLINK-6221           
1 56484U 23064AN  24028.89510783  .00001051  00000+0  95869-4 0  9996
2 56484  69.9985 267.8251 0003116 267.7016  92.3786 14.98320599 40285
STARLINK-6210           
1 56485U 23064AP  24029.07869626 -.00000521  00000+0 -35881-4 0  9992
2 56485  69.9991 267.2618 0002682 259.4889 100.5968 14.98330144 40671
STARLINK-6201           
1 56486U 23064AQ  24028.95352259 -.00001170  00000+0 -90302-4 0  9998
2 56486  69.9989 267.6278 0002723 265.3415  94.7433 14.98337190 40299
STARLINK-6196           
1 56487U 23064AR  24028.89922974 -.00000734  00000+0 -53708-4 0  9993
2 56487  69.9997 247.9608 0002811 266.7799  93.3039 14.98329150 40772
STARLINK-6204           
1 56488U 23064AS  24028.98268286 -.00000479  00000+0 -32365-4 0  9995
2 56488  69.9998 247.8523 0002607 262.7326  97.3537 14.98331773 41147
